{
  "type": "FeatureCollection",
  "features": [
    {
      "type": "Feature",
      "properties": {
        "norad_id": 66482,
        "name": "STARLINK-35648",
        "group": "last-30-days",
        "lat": 34.25505148443112,
        "lon": 119.44318601337866,
        "alt_km": 410.0655072156005,
        "timestamp": "2025-12-12T11:38:30.168852+00:00",
        "meta_object_name": "STARLINK-35648",
        "meta_object_id": "2025-262AC",
        "meta_epoch": "2025-12-11T15:18:23.183712",
        "meta_mean_motion": 15.50608502,
        "meta_eccentricity": 0.00016735,
        "meta_inclination": 43.0001,
        "meta_ra_of_asc_node": 77.4468,
        "meta_arg_of_pericenter": 270.6994,
        "meta_mean_anomaly": 89.3674,
        "meta_ephemeris_type": 0,
        "meta_classification_type": "U",
        "meta_norad_cat_id": 66482,
        "meta_element_set_no": 999,
        "meta_rev_at_epoch": 523,
        "meta_bstar": 0.00095038499,
        "meta_mean_motion_dot": 0.00055871,
        "meta_mean_motion_ddot": 0,
        "tle_line1": "1 66482U 25262AC  25345.63776833  .00055871  00000+0  95038-3 0  9998",
        "tle_line2": "2 66482  43.0001  77.4468 0001673 270.6994  89.3674 15.50608502  5235"
      },
      "geometry": {
        "type": "Point",
        "coordinates": [
          119.44318601337866,
          34.25505148443112
        ]
      }
    },
    {
      "type": "Feature",
      "properties": {
        "norad_id": 66483,
        "name": "STARLINK-35654",
        "group": "last-30-days",
        "lat": 35.28369098597703,
        "lon": 121.89040068134626,
        "alt_km": 409.8004863583974,
        "timestamp": "2025-12-12T11:38:30.168862+00:00",
        "meta_object_name": "STARLINK-35654",
        "meta_object_id": "2025-262AD",
        "meta_epoch": "2025-12-11T15:17:53.336832",
        "meta_mean_motion": 15.50642502,
        "meta_eccentricity": 0.00021538,
        "meta_inclination": 43.0001,
        "meta_ra_of_asc_node": 77.4431,
        "meta_arg_of_pericenter": 257.4372,
        "meta_mean_anomaly": 102.6247,
        "meta_ephemeris_type": 0,
        "meta_classification_type": "U",
        "meta_norad_cat_id": 66483,
        "meta_element_set_no": 999,
        "meta_rev_at_epoch": 539,
        "meta_bstar": 0.002466252,
        "meta_mean_motion_dot": 0.00147434,
        "meta_mean_motion_ddot": 0,
        "tle_line1": "1 66483U 25262AD  25345.63742288  .00147434  00000+0  24663-2 0  9998",
        "tle_line2": "2 66483  43.0001  77.4431 0002153 257.4372 102.6247 15.50642502  5393"
      },
      "geometry": {
        "type": "Point",
        "coordinates": [
          121.89040068134626,
          35.28369098597703
        ]
      }
    },
    {
      "type": "Feature",
      "properties": {
        "norad_id": 66484,
        "name": "STARLINK-35371",
        "group": "last-30-days",
        "lat": 36.1394374342797,
        "lon": 124.07698180243352,
        "alt_km": 408.76271895464015,
        "timestamp": "2025-12-12T11:38:30.168872+00:00",
        "meta_object_name": "STARLINK-35371",
        "meta_object_id": "2025-262AE",
        "meta_epoch": "2025-12-11T15:17:24.038592",
        "meta_mean_motion": 15.50644165,
        "meta_eccentricity": 0.00013158,
        "meta_inclination": 43.0001,
        "meta_ra_of_asc_node": 77.4416,
        "meta_arg_of_pericenter": 288.2599,
        "meta_mean_anomaly": 71.8118,
        "meta_ephemeris_type": 0,
        "meta_classification_type": "U",
        "meta_norad_cat_id": 66484,
        "meta_element_set_no": 999,
        "meta_rev_at_epoch": 539,
        "meta_bstar": 0.0028524623,
        "meta_mean_motion_dot": 0.00171103,
        "meta_mean_motion_ddot": 0,
        "tle_line1": "1 66484U 25262AE  25345.63708378  .00171103  00000+0  28525-2 0  9992",
        "tle_line2": "2 66484  43.0001  77.4416 0001315 288.2599  71.8118 15.50644165  5390"
      },
      "geometry": {
        "type": "Point",
        "coordinates": [
          124.07698180243352,
          36.1394374342797
        ]
      }
    },
    {
      "type": "Feature",
      "properties": {
        "norad_id": 66485,
        "name": "STARLINK-34774",
        "group": "last-30-days",
        "lat": -19.617446176652656,
        "lon": -30.63431264899152,
        "alt_km": 445.8887146532561,
        "timestamp": "2025-12-12T11:38:30.168883+00:00",
        "meta_object_name": "STARLINK-34774",
        "meta_object_id": "2025-263A",
        "meta_epoch": "2025-12-12T04:00:01.998720",
        "meta_mean_motion": 15.40653245,
        "meta_eccentricity": 0.0002137,
        "meta_inclination": 43.0008,
        "meta_ra_of_asc_node": 128.7132,
        "meta_arg_of_pericenter": 291.1066,
        "meta_mean_anomaly": 310.3782,
        "meta_ephemeris_type": 0,
        "meta_classification_type": "U",
        "meta_norad_cat_id": 66485,
        "meta_element_set_no": 999,
        "meta_rev_at_epoch": 554,
        "meta_bstar": 0.00068293,
        "meta_mean_motion_dot": 0.00028286,
        "meta_mean_motion_ddot": 0,
        "tle_line1": "1 66485U 25263A   25346.16668980  .00028286  00000+0  68293-3 0  9997",
        "tle_line2": "2 66485  43.0008 128.7132 0002137 291.1066 310.3782 15.40653245  5541"
      },
      "geometry": {
        "type": "Point",
        "coordinates": [
          -30.63431264899152,
          -19.617446176652656
        ]
      }
    },
    {
      "type": "Feature",
      "properties": {
        "norad_id": 66486,
        "name": "STARLINK-34844",
        "group": "last-30-days",
        "lat": -35.97639149818309,
        "lon": 75.48772407695124,
        "alt_km": 416.99422505934854,
        "timestamp": "2025-12-12T11:38:30.168894+00:00",
        "meta_object_name": "STARLINK-34844",
        "meta_object_id": "2025-263B",
        "meta_epoch": "2025-12-12T00:00:04.999104",
        "meta_mean_motion": 15.50512945,
        "meta_eccentricity": 0.0001697,
        "meta_inclination": 43.0003,
        "meta_ra_of_asc_node": 129.4939,
        "meta_arg_of_pericenter": 278.5166,
        "meta_mean_anomaly": 191.4414,
        "meta_ephemeris_type": 0,
        "meta_classification_type": "U",
        "meta_norad_cat_id": 66486,
        "meta_element_set_no": 999,
        "meta_rev_at_epoch": 546,
        "meta_bstar": 0.0011955,
        "meta_mean_motion_dot": 0.00070257,
        "meta_mean_motion_ddot": 0,
        "tle_line1": "1 66486U 25263B   25346.00005786  .00070257  00000+0  11955-2 0  9997",
        "tle_line2": "2 66486  43.0003 129.4939 0001697 278.5166 191.4414 15.50512945  5463"
      },
      "geometry": {
        "type": "Point",
        "coordinates": [
          75.48772407695124,
          -35.97639149818309
        ]
      }
    },
    {
      "type": "Feature",
      "properties": {
        "norad_id": 66487,
        "name": "STARLINK-34733",
        "group": "last-30-days",
        "lat": -39.96692169730574,
        "lon": 62.605176145095,
        "alt_km": 433.5110457581668,
        "timestamp": "2025-12-12T11:38:30.168929+00:00",
        "meta_object_name": "STARLINK-34733",
        "meta_object_id": "2025-263C",
        "meta_epoch": "2025-12-11T22:00:01.999584",
        "meta_mean_motion": 15.4745934,
        "meta_eccentricity": 0.00016039,
        "meta_inclination": 43.0002,
        "meta_ra_of_asc_node": 129.9882,
        "meta_arg_of_pericenter": 277.4229,
        "meta_mean_anomaly": 84.6221,
        "meta_ephemeris_type": 0,
        "meta_classification_type": "U",
        "meta_norad_cat_id": 66487,
        "meta_element_set_no": 999,
        "meta_rev_at_epoch": 550,
        "meta_bstar": -0.043703264,
        "meta_mean_motion_dot": -0.02044685,
        "meta_mean_motion_ddot": 0,
        "tle_line1": "1 66487U 25263C   25345.91668981 -.02044685  00000+0 -43703-1 0  9994",
        "tle_line2": "2 66487  43.0002 129.9882 0001603 277.4229  84.6221 15.47459340  5509"
      },
      "geometry": {
        "type": "Point",
        "coordinates": [
          62.605176145095,
          -39.96692169730574
        ]
      }
    },
    {
      "type": "Feature",
      "properties": {
        "norad_id": 66488,
        "name": "STARLINK-35515",
        "group": "last-30-days",
        "lat": -34.26101419988449,
        "lon": 79.6802126563298,
        "alt_km": 416.9634291757966,
        "timestamp": "2025-12-12T11:38:30.168941+00:00",
        "meta_object_name": "STARLINK-35515",
        "meta_object_id": "2025-263D",
        "meta_epoch": "2025-12-12T00:00:04.999104",
        "meta_mean_motion": 15.50502124,
        "meta_eccentricity": 0.0001647,
        "meta_inclination": 43.0003,
        "meta_ra_of_asc_node": 129.4852,
        "meta_arg_of_pericenter": 273.2757,
        "meta_mean_anomaly": 200.5218,
        "meta_ephemeris_type": 0,
        "meta_classification_type": "U",
        "meta_norad_cat_id": 66488,
        "meta_element_set_no": 999,
        "meta_rev_at_epoch": 551,
        "meta_bstar": 0.0016438,
        "meta_mean_motion_dot": 0.00097031,
        "meta_mean_motion_ddot": 0,
        "tle_line1": "1 66488U 25263D   25346.00005786  .00097031  00000+0  16438-2 0  9999",
        "tle_line2": "2 66488  43.0003 129.4852 0001647 273.2757 200.5218 15.50502124  5510"
      },
      "geometry": {
        "type": "Point",
        "coordinates": [
          79.6802126563298,
          -34.26101419988449
        ]
      }
    }
  ]
}